[
  {
    "OBJECT_NAME": "STARLINK-31571",
    "OBJECT_ID": "24060Q",
    "EPOCH": "2025-11-11T02:21:32.822784",
    "MEAN_MOTION": 15.27584364,
    "ECCENTRICITY": 8.21e-05,
    "INCLINATION": 43.0003,
    "RA_OF_ASC_NODE": 209.7888,
    "ARG_OF_PERICENTER": 265.4947,
    "MEAN_ANOMALY": 94.581,
    "EPHEMERIS_TYPE": 0,
    "CLASSIFICATION_TYPE": "U",
    "NORAD_CAT_ID": 59362,
    "ELEMENT_SET_NO": 999,
    "REV_AT_EPOCH": 9192,
    "BSTAR": 0.0001047,
    "MEAN_MOTION_DOT": 2.621e-05,
    "MEAN_MOTION_DDOT": 0.0,
    "TLE_LINE1": "1 59362U 24060Q   25315.09829656  .00002621  00000+0  10470-3 0  9993",
    "TLE_LINE2": "2 59362  43.0003 209.7888 0000821 265.4947  94.5810 15.27584364 91920",
    "COMMENT": "Grouped by shell and plane from TLE"
  },
  {
    "OBJECT_NAME": "STARLINK-31553",
    "OBJECT_ID": "24060R",
    "EPOCH": "2025-11-11T02:06:17.035488",
    "MEAN_MOTION": 15.27578017,
    "ECCENTRICITY": 0.0001175,
    "INCLINATION": 43.0017,
    "RA_OF_ASC_NODE": 202.7695,
    "ARG_OF_PERICENTER": 273.2611,
    "MEAN_ANOMALY": 86.8106,
    "EPHEMERIS_TYPE": 0,
    "CLASSIFICATION_TYPE": "U",
    "NORAD_CAT_ID": 59363,
    "ELEMENT_SET_NO": 999,
    "REV_AT_EPOCH": 9200,
    "BSTAR": 3.8324999999999996e-05,
    "MEAN_MOTION_DOT": 7.93e-06,
    "MEAN_MOTION_DDOT": 0.0,
    "TLE_LINE1": "1 59363U 24060R   25315.08769717  .00000793  00000+0  38325-4 0  9992",
    "TLE_LINE2": "2 59363  43.0017 202.7695 0001175 273.2611  86.8106 15.27578017 92003",
    "COMMENT": "Grouped by shell and plane from TLE"
  },
  {
    "OBJECT_NAME": "STARLINK-31537",
    "OBJECT_ID": "24060T",
    "EPOCH": "2025-11-11T02:32:37.788288",
    "MEAN_MOTION": 15.27600114,
    "ECCENTRICITY": 0.0001192,
    "INCLINATION": 43.0013,
    "RA_OF_ASC_NODE": 209.847,
    "ARG_OF_PERICENTER": 277.0354,
    "MEAN_ANOMALY": 83.0362,
    "EPHEMERIS_TYPE": 0,
    "CLASSIFICATION_TYPE": "U",
    "NORAD_CAT_ID": 59365,
    "ELEMENT_SET_NO": 999,
    "REV_AT_EPOCH": 9192,
    "BSTAR": 0.00024893,
    "MEAN_MOTION_DOT": 6.598e-05,
    "MEAN_MOTION_DDOT": 0.0,
    "TLE_LINE1": "1 59365U 24060T   25315.10599292  .00006598  00000+0  24893-3 0  9999",
    "TLE_LINE2": "2 59365  43.0013 209.8470 0001192 277.0354  83.0362 15.27600114 91922",
    "COMMENT": "Grouped by shell and plane from TLE"
  },
  {
    "OBJECT_NAME": "STARLINK-31451",
    "OBJECT_ID": "24060U",
    "EPOCH": "2025-11-11T04:32:30.772320",
    "MEAN_MOTION": 15.27578414,
    "ECCENTRICITY": 0.000108,
    "INCLINATION": 43.0016,
    "RA_OF_ASC_NODE": 208.7453,
    "ARG_OF_PERICENTER": 277.2425,
    "MEAN_ANOMALY": 82.8304,
    "EPHEMERIS_TYPE": 0,
    "CLASSIFICATION_TYPE": "U",
    "NORAD_CAT_ID": 59366,
    "ELEMENT_SET_NO": 999,
    "REV_AT_EPOCH": 9194,
    "BSTAR": 0.000533,
    "MEAN_MOTION_DOT": 0.00014433,
    "MEAN_MOTION_DDOT": 0.0,
    "TLE_LINE1": "1 59366U 24060U   25315.18924505  .00014433  00000+0  53300-3 0  9999",
    "TLE_LINE2": "2 59366  43.0016 208.7453 0001080 277.2425  82.8304 15.27578414 91944",
    "COMMENT": "Grouped by shell and plane from TLE"
  },
  {
    "OBJECT_NAME": "STARLINK-31428",
    "OBJECT_ID": "24060V",
    "EPOCH": "2025-11-11T03:14:58.992000",
    "MEAN_MOTION": 15.27597112,
    "ECCENTRICITY": 0.0001031,
    "INCLINATION": 43.0004,
    "RA_OF_ASC_NODE": 209.1987,
    "ARG_OF_PERICENTER": 281.206,
    "MEAN_ANOMALY": 78.8676,
    "EPHEMERIS_TYPE": 0,
    "CLASSIFICATION_TYPE": "U",
    "NORAD_CAT_ID": 59367,
    "ELEMENT_SET_NO": 999,
    "REV_AT_EPOCH": 9193,
    "BSTAR": 0.00018601000000000002,
    "MEAN_MOTION_DOT": 4.863e-05,
    "MEAN_MOTION_DDOT": 0.0,
    "TLE_LINE1": "1 59367U 24060V   25315.13540500  .00004863  00000+0  18601-3 0  9995",
    "TLE_LINE2": "2 59367  43.0004 209.1987 0001031 281.2060  78.8676 15.27597112 91937",
    "COMMENT": "Grouped by shell and plane from TLE"
  },
  {
    "OBJECT_NAME": "STARLINK-31419",
    "OBJECT_ID": "24060W",
    "EPOCH": "2025-11-11T01:50:04.673472",
    "MEAN_MOTION": 15.27628774,
    "ECCENTRICITY": 0.0001093,
    "INCLINATION": 43.0019,
    "RA_OF_ASC_NODE": 209.6183,
    "ARG_OF_PERICENTER": 279.228,
    "MEAN_ANOMALY": 80.8448,
    "EPHEMERIS_TYPE": 0,
    "CLASSIFICATION_TYPE": "U",
    "NORAD_CAT_ID": 59368,
    "ELEMENT_SET_NO": 999,
    "REV_AT_EPOCH": 9192,
    "BSTAR": 0.0,
    "MEAN_MOTION_DOT": -6.326e-05,
    "MEAN_MOTION_DDOT": 0.0,
    "TLE_LINE1": "1 59368U 24060W   25315.07644298 -.00006326  00000+0 -22022-3 0  9998",
    "TLE_LINE2": "2 59368  43.0019 209.6183 0001093 279.2280  80.8448 15.27628774 91924",
    "COMMENT": "Grouped by shell and plane from TLE"
  },
  {
    "OBJECT_NAME": "STARLINK-32406",
    "OBJECT_ID": "24184P",
    "EPOCH": "2025-11-11T01:32:29.513472",
    "MEAN_MOTION": 15.30206225,
    "ECCENTRICITY": 0.0001115,
    "INCLINATION": 53.1603,
    "RA_OF_ASC_NODE": 205.0333,
    "ARG_OF_PERICENTER": 89.3811,
    "MEAN_ANOMALY": 270.7317,
    "EPHEMERIS_TYPE": 0,
    "CLASSIFICATION_TYPE": "U",
    "NORAD_CAT_ID": 61545,
    "ELEMENT_SET_NO": 999,
    "REV_AT_EPOCH": 6034,
    "BSTAR": 2.2997e-05,
    "MEAN_MOTION_DOT": 3.22e-06,
    "MEAN_MOTION_DDOT": 0.0,
    "TLE_LINE1": "1 61545U 24184P   25315.06423048  .00000322  00000+0  22997-4 0  9992",
    "TLE_LINE2": "2 61545  53.1603 205.0333 0001115  89.3811 270.7317 15.30206225 60341",
    "COMMENT": "Grouped by shell and plane from TLE"
  },
  {
    "OBJECT_NAME": "STARLINK-32445",
    "OBJECT_ID": "24184Q",
    "EPOCH": "2025-11-11T01:50:44.074464",
    "MEAN_MOTION": 15.30199438,
    "ECCENTRICITY": 0.0001357,
    "INCLINATION": 53.1605,
    "RA_OF_ASC_NODE": 205.1162,
    "ARG_OF_PERICENTER": 102.5932,
    "MEAN_ANOMALY": 257.5221,
    "EPHEMERIS_TYPE": 0,
    "CLASSIFICATION_TYPE": "U",
    "NORAD_CAT_ID": 61546,
    "ELEMENT_SET_NO": 999,
    "REV_AT_EPOCH": 6034,
    "BSTAR": 1.4011000000000002e-05,
    "MEAN_MOTION_DOT": 5.6e-07,
    "MEAN_MOTION_DDOT": 0.0,
    "TLE_LINE1": "1 61546U 24184Q   25315.07689901  .00000056  00000+0  14011-4 0  9998",
    "TLE_LINE2": "2 61546  53.1605 205.1162 0001357 102.5932 257.5221 15.30199438 60349",
    "COMMENT": "Grouped by shell and plane from TLE"
  },
  {
    "OBJECT_NAME": "STARLINK-32411",
    "OBJECT_ID": "24184R",
    "EPOCH": "2025-11-11T03:02:00.267072",
    "MEAN_MOTION": 15.30196162,
    "ECCENTRICITY": 8.14e-05,
    "INCLINATION": 53.1592,
    "RA_OF_ASC_NODE": 204.7093,
    "ARG_OF_PERICENTER": 86.6055,
    "MEAN_ANOMALY": 273.5039,
    "EPHEMERIS_TYPE": 0,
    "CLASSIFICATION_TYPE": "U",
    "NORAD_CAT_ID": 61547,
    "ELEMENT_SET_NO": 999,
    "REV_AT_EPOCH": 6035,
    "BSTAR": 0.0,
    "MEAN_MOTION_DOT": -5.839e-05,
    "MEAN_MOTION_DDOT": 0.0,
    "TLE_LINE1": "1 61547U 24184R   25315.12639198 -.00005839  00000+0 -18521-3 0  9993",
    "TLE_LINE2": "2 61547  53.1592 204.7093 0000814  86.6055 273.5039 15.30196162 60355",
    "COMMENT": "Grouped by shell and plane from TLE"
  },
  {
    "OBJECT_NAME": "STARLINK-32424",
    "OBJECT_ID": "24184S",
    "EPOCH": "2025-11-11T01:46:10.477632",
    "MEAN_MOTION": 15.30200626,
    "ECCENTRICITY": 0.0001436,
    "INCLINATION": 53.1613,
    "RA_OF_ASC_NODE": 205.0951,
    "ARG_OF_PERICENTER": 81.8223,
    "MEAN_ANOMALY": 278.2941,
    "EPHEMERIS_TYPE": 0,
    "CLASSIFICATION_TYPE": "U",
    "NORAD_CAT_ID": 61548,
    "ELEMENT_SET_NO": 999,
    "REV_AT_EPOCH": 6034,
    "BSTAR": 4.3617e-05,
    "MEAN_MOTION_DOT": 9.33e-06,
    "MEAN_MOTION_DDOT": 0.0,
    "TLE_LINE1": "1 61548U 24184S   25315.07373238  .00000933  00000+0  43617-4 0  9991",
    "TLE_LINE2": "2 61548  53.1613 205.0951 0001436  81.8223 278.2941 15.30200626 60346",
    "COMMENT": "Grouped by shell and plane from TLE"
  },
  {
    "OBJECT_NAME": "STARLINK-32389",
    "OBJECT_ID": "24184T",
    "EPOCH": "2025-11-11T01:23:22.820928",
    "MEAN_MOTION": 15.30198247,
    "ECCENTRICITY": 0.0001337,
    "INCLINATION": 53.1596,
    "RA_OF_ASC_NODE": 205.0001,
    "ARG_OF_PERICENTER": 84.2918,
    "MEAN_ANOMALY": 275.8235,
    "EPHEMERIS_TYPE": 0,
    "CLASSIFICATION_TYPE": "U",
    "NORAD_CAT_ID": 61549,
    "ELEMENT_SET_NO": 999,
    "REV_AT_EPOCH": 6034,
    "BSTAR": 5.2004e-05,
    "MEAN_MOTION_DOT": 1.181e-05,
    "MEAN_MOTION_DDOT": 0.0,
    "TLE_LINE1": "1 61549U 24184T   25315.05790302  .00001181  00000+0  52004-4 0  9991",
    "TLE_LINE2": "2 61549  53.1596 205.0001 0001337  84.2918 275.8235 15.30198247 60345",
    "COMMENT": "Grouped by shell and plane from TLE"
  },
  {
    "OBJECT_NAME": "STARLINK-32476",
    "OBJECT_ID": "24184U",
    "EPOCH": "2025-11-10T17:51:21.379680",
    "MEAN_MOTION": 15.30198966,
    "ECCENTRICITY": 0.0001074,
    "INCLINATION": 53.1614,
    "RA_OF_ASC_NODE": 206.5916,
    "ARG_OF_PERICENTER": 74.2981,
    "MEAN_ANOMALY": 285.8139,
    "EPHEMERIS_TYPE": 0,
    "CLASSIFICATION_TYPE": "U",
    "NORAD_CAT_ID": 61550,
    "ELEMENT_SET_NO": 999,
    "REV_AT_EPOCH": 6029,
    "BSTAR": 0.0,
    "MEAN_MOTION_DOT": -1.708e-05,
    "MEAN_MOTION_DDOT": 0.0,
    "TLE_LINE1": "1 61550U 24184U   25314.74399745 -.00001708  00000+0 -45551-4 0  9990",
    "TLE_LINE2": "2 61550  53.1614 206.5916 0001074  74.2981 285.8139 15.30198966 60292",
    "COMMENT": "Grouped by shell and plane from TLE"
  },
  {
    "OBJECT_NAME": "STARLINK-32366",
    "OBJECT_ID": "24184V",
    "EPOCH": "2025-11-11T01:55:17.781888",
    "MEAN_MOTION": 15.30188877,
    "ECCENTRICITY": 0.0001398,
    "INCLINATION": 53.1611,
    "RA_OF_ASC_NODE": 205.1356,
    "ARG_OF_PERICENTER": 96.706,
    "MEAN_ANOMALY": 263.41,
    "EPHEMERIS_TYPE": 0,
    "CLASSIFICATION_TYPE": "U",
    "NORAD_CAT_ID": 61551,
    "ELEMENT_SET_NO": 999,
    "REV_AT_EPOCH": 6034,
    "BSTAR": 0.00013363,
    "MEAN_MOTION_DOT": 3.599e-05,
    "MEAN_MOTION_DDOT": 0.0,
    "TLE_LINE1": "1 61551U 24184V   25315.08006692  .00003599  00000+0  13363-3 0  9998",
    "TLE_LINE2": "2 61551  53.1611 205.1356 0001398  96.7060 263.4100 15.30188877 60345",
    "COMMENT": "Grouped by shell and plane from TLE"
  }
]